{"type": "FeatureCollection", "features": [ {"type": "Feature", "properties": {"norad_id": 30759, "name": "FENGYUN 1C DEB", "group": "fengyun-1c-debris", "lat": -79.15012369582433, "lon": -136.9186440505153, "alt_km": 720.4373009333731, "timestamp": "2025-12-18T23:35:49.339151+00:00", "meta": {"OBJECT_NAME": "FENGYUN 1C DEB", "OBJECT_ID": "1999-025ATV", "EPOCH": "2025-12-18T06:10:21.020736", "MEAN_MOTION": 14.54622072, "ECCENTRICITY": 0.00088956, "INCLINATION": 99.2577, "RA_OF_ASC_NODE": 100.5995, "ARG_OF_PERICENTER": 152.2546, "MEAN_ANOMALY": 272.2087, "EPHEMERIS_TYPE": 0, "CLASSIFICATION_TYPE": "U", "NORAD_CAT_ID": 30759, "ELEMENT_SET_NO": 999, "REV_AT_EPOCH": 97735, "BSTAR": 0.002026801, "MEAN_MOTION_DOT": 8.618e-05, "MEAN_MOTION_DDOT": 0}, "tle": {"line1": "1 30759U 99025ATV 25352.25718774  .00008618  00000+0  20268-2 0  9999", "line2": "2 30759  99.2577 100.5995 0008895 152.2546 272.2087 14.54622072977351"}}, "geometry": {"type": "Point", "coordinates": [-136.9186440505153, -79.15012369582433]}}, {"type": "Feature", "properties": {"norad_id": 30760, "name": "FENGYUN 1C DEB", "group": "fengyun-1c-debris", "lat": -80.78731262505376, "lon": 62.733410470558795, "alt_km": 860.2521686384498, "timestamp": "2025-12-18T23:35:49.339162+00:00", "meta": {"OBJECT_NAME": "FENGYUN 1C DEB", "OBJECT_ID": "1999-025ATW", "EPOCH": "2025-12-17T22:22:29.492256", "MEAN_MOTION": 14.05184041, "ECCENTRICITY": 0.00525928, "INCLINATION": 98.8222, "RA_OF_ASC_NODE": 348.4709, "ARG_OF_PERICENTER": 328.8269, "MEAN_ANOMALY": 30.9783, "EPHEMERIS_TYPE": 0, "CLASSIFICATION_TYPE": "U", "NORAD_CAT_ID": 30760, "ELEMENT_SET_NO": 999, "REV_AT_EPOCH": 96295, "BSTAR": 0.00032232002, "MEAN_MOTION_DOT": 4.84e-06, "MEAN_MOTION_DDOT": 0}, "tle": {"line1": "1 30760U 99025ATW 25351.93228579  .00000484  00000+0  32232-3 0  9992", "line2": "2 30760  98.8222 348.4709 0052592 328.8269  30.9783 14.05184041962954"}}, "geometry": {"type": "Point", "coordinates": [62.733410470558795, -80.78731262505376]}}, {"type": "Feature", "properties": {"norad_id": 30761, "name": "FENGYUN 1C DEB", "group": "fengyun-1c-debris", "lat": -9.462709355861001, "lon": -79.1726592613894, "alt_km": 741.6262065974015, "timestamp": "2025-12-18T23:35:49.339173+00:00", "meta": {"OBJECT_NAME": "FENGYUN 1C DEB", "OBJECT_ID": "1999-025ATX", "EPOCH": "2025-12-18T06:54:59.169312", "MEAN_MOTION": 14.35807465, "ECCENTRICITY": 0.00840697, "INCLINATION": 98.9663, "RA_OF_ASC_NODE": 278.597, "ARG_OF_PERICENTER": 297.5743, "MEAN_ANOMALY": 61.6921, "EPHEMERIS_TYPE": 0, "CLASSIFICATION_TYPE": "U", "NORAD_CAT_ID": 30761, "ELEMENT_SET_NO": 999, "REV_AT_EPOCH": 97821, "BSTAR": 0.00080963907, "MEAN_MOTION_DOT": 2.391e-05, "MEAN_MOTION_DDOT": 0}, "tle": {"line1": "1 30761U 99025ATX 25352.28818483  .00002391  00000+0  80964-3 0  9995", "line2": "2 30761  98.9663 278.5970 0084069 297.5743  61.6921 14.35807465978217"}}, "geometry": {"type": "Point", "coordinates": [-79.1726592613894, -9.462709355861001]}}, {"type": "Feature", "properties": {"norad_id": 30762, "name": "FENGYUN 1C DEB", "group": "fengyun-1c-debris", "lat": 38.137693455992256, "lon": -23.47726787929365, "alt_km": 969.2730370918862, "timestamp": "2025-12-18T23:35:49.339183+00:00", "meta": {"OBJECT_NAME": "FENGYUN 1C DEB", "OBJECT_ID": "1999-025ATY", "EPOCH": "2025-12-17T17:21:55.357632", "MEAN_MOTION": 13.98101636, "ECCENTRICITY": 0.01973973, "INCLINATION": 98.8749, "RA_OF_ASC_NODE": 342.3505, "ARG_OF_PERICENTER": 281.3022, "MEAN_ANOMALY": 258.9527, "EPHEMERIS_TYPE": 0, "CLASSIFICATION_TYPE": "U", "NORAD_CAT_ID": 30762, "ELEMENT_SET_NO": 999, "REV_AT_EPOCH": 95707, "BSTAR": 0.00053814649, "MEAN_MOTION_DOT": 8.59e-06, "MEAN_MOTION_DDOT": 0}, "tle": {"line1": "1 30762U 99025ATY 25351.72355738  .00000859  00000+0  53815-3 0  9995", "line2": "2 30762  98.8749 342.3505 0197397 281.3022 258.9527 13.98101636957075"}}, "geometry": {"type": "Point", "coordinates": [-23.47726787929365, 38.137693455992256]}}, {"type": "Feature", "properties": {"norad_id": 30763, "name": "FENGYUN 1C DEB", "group": "fengyun-1c-debris", "lat": -68.90497427573372, "lon": -139.13583434654493, "alt_km": 679.1938025003046, "timestamp": "2025-12-18T23:35:49.339194+00:00", "meta": {"OBJECT_NAME": "FENGYUN 1C DEB", "OBJECT_ID": "1999-025ATZ", "EPOCH": "2025-12-18T11:30:22.619808", "MEAN_MOTION": 14.61317783, "ECCENTRICITY": 0.0023938, "INCLINATION": 98.8932, "RA_OF_ASC_NODE": 64.2697, "ARG_OF_PERICENTER": 251.8983, "MEAN_ANOMALY": 230.1158, "EPHEMERIS_TYPE": 0, "CLASSIFICATION_TYPE": "U", "NORAD_CAT_ID": 30763, "ELEMENT_SET_NO": 999, "REV_AT_EPOCH": 97228, "BSTAR": 0.0031403576, "MEAN_MOTION_DOT": 0.00015552, "MEAN_MOTION_DDOT": 0}, "tle": {"line1": "1 30763U 99025ATZ 25352.47942847  .00015552  00000+0  31404-2 0  9997", "line2": "2 30763  98.8932  64.2697 0023938 251.8983 230.1158 14.61317783972284"}}, "geometry": {"type": "Point", "coordinates": [-139.13583434654493, -68.90497427573372]}}, {"type": "Feature", "properties": {"norad_id": 30764, "name": "FENGYUN 1C DEB", "group": "fengyun-1c-debris", "lat": -28.894236057299654, "lon": 139.87148692879546, "alt_km": 457.2145863039468, "timestamp": "2025-12-18T23:35:49.339204+00:00", "meta": {"OBJECT_NAME": "FENGYUN 1C DEB", "OBJECT_ID": "1999-025AUA", "EPOCH": "2025-12-18T10:07:44.743296", "MEAN_MOTION": 15.29422907, "ECCENTRICITY": 0.00764091, "INCLINATION": 98.7787, "RA_OF_ASC_NODE": 324.1023, "ARG_OF_PERICENTER": 150.6479, "MEAN_ANOMALY": 209.9082, "EPHEMERIS_TYPE": 0, "CLASSIFICATION_TYPE": "U", "NORAD_CAT_ID": 30764, "ELEMENT_SET_NO": 999, "REV_AT_EPOCH": 1309, "BSTAR": 0.00092481267, "MEAN_MOTION_DOT": 0.00028812, "MEAN_MOTION_DDOT": 0}, "tle": {"line1": "1 30764U 99025AUA 25352.42204564  .00028812  00000+0  92481-3 0  9996", "line2": "2 30764  98.7787 324.1023 0076409 150.6479 209.9082 15.29422907 13095"}}, "geometry": {"type": "Point", "coordinates": [139.87148692879546, -28.894236057299654]}}, {"type": "Feature", "properties": {"norad_id": 30765, "name": "FENGYUN 1C DEB", "group": "fengyun-1c-debris", "lat": -62.36422127827799, "lon": -158.30010147064465, "alt_km": 819.8158082515638, "timestamp": "2025-12-18T23:35:49.339215+00:00", "meta": {"OBJECT_NAME": "FENGYUN 1C DEB", "OBJECT_ID": "1999-025AUB", "EPOCH": "2025-12-18T14:41:31.396416", "MEAN_MOTION": 14.14728955, "ECCENTRICITY": 0.00685359, "INCLINATION": 98.7877, "RA_OF_ASC_NODE": 38.5185, "ARG_OF_PERICENTER": 192.5111, "MEAN_ANOMALY": 321.8446, "EPHEMERIS_TYPE": 0, "CLASSIFICATION_TYPE": "U", "NORAD_CAT_ID": 30765, "ELEMENT_SET_NO": 999, "REV_AT_EPOCH": 96905, "BSTAR": 0.00064805192, "MEAN_MOTION_DOT": 1.233e-05, "MEAN_MOTION_DDOT": 0}, "tle": {"line1": "1 30765U 99025AUB 25352.61216894  .00001233  00000+0  64805-3 0  9994", "line2": "2 30765  98.7877  38.5185 0068535 192.5111 321.8446 14.14728955969059"}}, "geometry": {"type": "Point", "coordinates": [-158.30010147064465, -62.36422127827799]}}, {"type": "Feature", "properties": {"norad_id": 30766, "name": "FENGYUN 1C DEB", "group": "fengyun-1c-debris", "lat": 2.8784765485107227, "lon": -7.29566364956678, "alt_km": 827.3312276045581, "timestamp": "2025-12-18T23:35:49.339225+00:00", "meta": {"OBJECT_NAME": "FENGYUN 1C DEB", "OBJECT_ID": "1999-025AUC", "EPOCH": "2025-12-15T07:04:11.928864", "MEAN_MOTION": 14.09535307, "ECCENTRICITY": 0.00836782, "INCLINATION": 98.6724, "RA_OF_ASC_NODE": 349.591, "ARG_OF_PERICENTER": 67.2731, "MEAN_ANOMALY": 309.6105, "EPHEMERIS_TYPE": 0, "CLASSIFICATION_TYPE": "U", "NORAD_CAT_ID": 30766, "ELEMENT_SET_NO": 999, "REV_AT_EPOCH": 62833, "BSTAR": 0.00078621277, "MEAN_MOTION_DOT": 1.379e-05, "MEAN_MOTION_DDOT": 0}, "tle": {"line1": "1 30766U 99025AUC 25349.29458251  .00001379  00000+0  78621-3 0  9992", "line2": "2 30766  98.6724 349.5910 0083678  67.2731 309.6105 14.09535307628332"}}, "geometry": {"type": "Point", "coordinates": [-7.29566364956678, 2.8784765485107227]}}, {"type": "Feature", "properties": {"norad_id": 30768, "name": "FENGYUN 1C DEB", "group": "fengyun-1c-debris", "lat": 43.02350188350533, "lon": 74.70743742497159, "alt_km": 714.7650589802788, "timestamp": "2025-12-18T23:35:49.339236+00:00", "meta": {"OBJECT_NAME": "FENGYUN 1C DEB", "OBJECT_ID": "1999-025AUE", "EPOCH": "2025-12-18T05:26:26.107584", "MEAN_MOTION": 14.47978616, "ECCENTRICITY": 0.00247433, "INCLINATION": 98.6183, "RA_OF_ASC_NODE": 82.0736, "ARG_OF_PERICENTER": 84.0521, "MEAN_ANOMALY": 338.5907, "EPHEMERIS_TYPE": 0, "CLASSIFICATION_TYPE": "U", "NORAD_CAT_ID": 30768, "ELEMENT_SET_NO": 999, "REV_AT_EPOCH": 97950, "BSTAR": 0.0017342845, "MEAN_MOTION_DOT": 6.421e-05, "MEAN_MOTION_DDOT": 0}, "tle": {"line1": "1 30768U 99025AUE 25352.22669106  .00006421  00000+0  17343-2 0  9990", "line2": "2 30768  98.6183  82.0736 0024743  84.0521 338.5907 14.47978616979505"}}, "geometry": {"type": "Point", "coordinates": [74.70743742497159, 43.02350188350533]}}, {"type": "Feature", "properties": {"norad_id": 30770, "name": "FENGYUN 1C DEB", "group": "fengyun-1c-debris", "lat": -74.73172266051964, "lon": 32.76533085742146, "alt_km": 838.3869937339696, "timestamp": "2025-12-18T23:35:49.339246+00:00", "meta": {"OBJECT_NAME": "FENGYUN 1C DEB", "OBJECT_ID": "1999-025AUG", "EPOCH": "2025-12-18T14:21:30.249792", "MEAN_MOTION": 14.15690675, "ECCENTRICITY": 0.00127564, "INCLINATION": 98.6542, "RA_OF_ASC_NODE": 358.4789, "ARG_OF_PERICENTER": 268.1672, "MEAN_ANOMALY": 213.6901, "EPHEMERIS_TYPE": 0, "CLASSIFICATION_TYPE": "U", "NORAD_CAT_ID": 30770, "ELEMENT_SET_NO": 999, "REV_AT_EPOCH": 96990, "BSTAR": 0.000244205, "MEAN_MOTION_DOT": 4.36e-06, "MEAN_MOTION_DDOT": 0}, "tle": {"line1": "1 30770U 99025AUG 25352.59826678  .00000436  00000+0  24420-3 0  9997", "line2": "2 30770  98.6542 358.4789 0012756 268.1672 213.6901 14.15690675969909"}}, "geometry": {"type": "Point", "coordinates": [32.76533085742146, -74.73172266051964]}}]}